NORAD_CAT_ID,OBJECT_NAME,OBJECT_TYPE,EPOCH,MEAN_MOTION,ECCENTRICITY,INCLINATION,RA_OF_ASC_NODE,ARG_OF_PERICENTER,MEAN_ANOMALY,BSTAR,MEAN_MOTION_DOT,MEAN_MOTION_DDOT,TLE_LINE0,TLE_LINE1,TLE_LINE2,SEMIMAJOR_AXIS,PERIOD,APOGEE,PERIGEE,DECAYED
52879.0,STARLINK-4139,PAYLOAD,2024-01-21 22:10:53,15.08844399,0.0001437,53.216,265.6475,91.3504,268.7652,0.00012718,1.737e-05,0.0,0 STARLINK-4139,1 52879U 22062BB  24021.92422759  .00001737  00000-0  12718-3 0  9992,2 52879  53.2160 265.6475 0001437  91.3504 268.7652 15.08844399 88656,6917.867,95.437,540.726,538.738,0.0
52879.0,STARLINK-4139,PAYLOAD,2024-01-21 23:46:16,15.08846463,0.0001454,53.216,265.3501,86.1767,273.9392,0.00019192,2.768e-05,0.0,0 STARLINK-4139,1 52879U 22062BB  24021.99046739  .00002768  00000-0  19192-3 0  9997,2 52879  53.2160 265.3501 0001454  86.1767 273.9392 15.08846463 89154,6917.861,95.437,540.731,538.72,0.0
52879.0,STARLINK-4139,PAYLOAD,2024-01-22 20:26:17,15.08841913,0.0001344,53.2154,261.4819,103.6667,256.4475,0.00016793,2.386e-05,0.0,0 STARLINK-4139,1 52879U 22062BB  24022.85159032  .00002386  00000-0  16793-3 0  9994,2 52879  53.2154 261.4819 0001344 103.6667 256.4475 15.08841913 89285,6917.875,95.437,540.669,538.81,0.0
52879.0,STARLINK-4139,PAYLOAD,2024-01-22 22:01:40,15.08842276,0.0001357,53.2151,261.1852,99.0139,261.1007,0.00016927,2.407e-05,0.0,0 STARLINK-4139,1 52879U 22062BB  24022.91783018  .00002407  00000-0  16927-3 0  9991,2 52879  53.2151 261.1852 0001357  99.0139 261.1007 15.08842276 88806,6917.873,95.437,540.677,538.8,0.0
52879.0,STARLINK-4139,PAYLOAD,2024-01-23 21:52:27,15.088482,0.0001387,53.2146,256.726,87.2843,272.8308,0.00025046,3.701e-05,0.0,0 STARLINK-4139,1 52879U 22062BB  24023.91142907  .00003701  00000-0  25046-3 0  9998,2 52879  53.2146 256.7260 0001387  87.2843 272.8308 15.08848200 88959,6917.855,95.437,540.68,538.761,0.0
52879.0,STARLINK-4139,PAYLOAD,2024-01-24 20:07:51,15.08845093,0.0001279,53.2145,252.5603,99.6726,260.4411,0.00021422,3.124e-05,0.0,0 STARLINK-4139,1 52879U 22062BB  24024.83878994  .00003124  00000-0  21422-3 0  9995,2 52879  53.2145 252.5603 0001279  99.6726 260.4411 15.08845093 89585,6917.865,95.437,540.615,538.845,0.0
52879.0,STARLINK-4139,PAYLOAD,2024-01-24 21:43:14,15.08844695,0.0001348,53.2147,252.2644,93.9282,266.1864,0.00018403,2.642e-05,0.0,0 STARLINK-4139,1 52879U 22062BB  24024.90503027  .00002642  00000-0  18403-3 0  9994,2 52879  53.2147 252.2644 0001348  93.9282 266.1864 15.08844695 89100,6917.866,95.437,540.664,538.799,0.0
52879.0,STARLINK-4139,PAYLOAD,2024-01-25 19:58:38,15.08842534,0.0001428,53.2152,248.1005,95.8662,264.2493,8.6657e-05,1.092e-05,0.0,0 STARLINK-4139,1 52879U 22062BB  24025.83239145  .00001092  00000-0  86657-4 0  9999,2 52879  53.2152 248.1005 0001428  95.8662 264.2493 15.08842534 89739,6917.873,95.437,540.726,538.75,0.0
52879.0,STARLINK-4139,PAYLOAD,2024-01-25 21:34:01,15.08844334,0.0001423,53.2154,247.8027,95.7949,264.3205,6.7794e-05,7.91e-06,0.0,0 STARLINK-4139,1 52879U 22062BB  24025.89863058  .00000791  00000-0  67794-4 0  9997,2 52879  53.2154 247.8027 0001423  95.7949 264.3205 15.08844334 89252,6917.867,95.437,540.717,538.748,0.0
52879.0,STARLINK-4139,PAYLOAD,2024-01-27 13:18:39,15.08849387,0.0002058,53.2147,240.3702,128.8318,231.2858,-0.00012751,-2.318e-05,0.0,0 STARLINK-4139,1 52879U 22062BB  24027.55462529 -.00002318  00000-0 -12751-3 0  9991,2 52879  53.2147 240.3702 0002058 128.8318 231.2858 15.08849387 89996,6917.852,95.437,541.14,538.293,0.0
52879.0,STARLINK-4139,PAYLOAD,2024-01-27 19:40:12,15.08841097,0.0001509,53.2149,239.1789,115.5745,244.5403,3.779e-05,3.14e-06,0.0,0 STARLINK-4139,1 52879U 22062BB  24027.81959027  .00000314  00000-0  37790-4 0  9997,2 52879  53.2149 239.1789 0001509 115.5745 244.5403 15.08841097 90036,6917.877,95.437,540.786,538.698,0.0
52879.0,STARLINK-4139,PAYLOAD,2024-01-27 21:15:35,15.08838329,0.0001338,53.2149,238.8827,98.2699,261.8445,9.7923e-06,-1.32e-06,0.0,0 STARLINK-4139,1 52879U 22062BB  24027.88583154 -.00000132  00000-0  97923-5 0  9992,2 52879  53.2149 238.8827 0001338  98.2699 261.8445 15.08838329 89557,6917.885,95.438,540.676,538.825,0.0
52879.0,STARLINK-4139,PAYLOAD,2024-01-28 19:31:00,15.08835962,0.0001514,53.2152,234.7204,110.8273,249.2882,4.9554e-05,5.01e-06,0.0,0 STARLINK-4139,1 52879U 22062BB  24028.81319522  .00000501  00000-0  49554-4 0  9997,2 52879  53.2152 234.7204 0001514 110.8273 249.2882 15.08835962 90186,6917.893,95.438,540.805,538.71,0.0
52879.0,STARLINK-4139,PAYLOAD,2024-01-28 22:41:46,15.08835705,0.0001425,53.215,234.1249,102.9171,257.198,8.4751e-05,1.061e-05,0.0,0 STARLINK-4139,1 52879U 22062BB  24028.94567627  .00001061  00000-0  84751-4 0  9992,2 52879  53.2150 234.1249 0001425 102.9171 257.1980 15.08835705 89716,6917.894,95.438,540.744,538.773,0.0
52879.0,STARLINK-4139,PAYLOAD,2024-01-29 13:00:14,15.08839738,0.0001314,53.215,231.4487,96.7529,263.3613,0.0001739,2.481e-05,0.0,0 STARLINK-4139,1 52879U 22062BB  24029.54183605  .00002481  00000-0  17390-3 0  9990,2 52879  53.2150 231.4487 0001314  96.7529 263.3613 15.08839738 89806,6917.881,95.438,540.655,538.837,0.0
52879.0,STARLINK-4139,PAYLOAD,2024-01-29 22:32:33,15.08844858,0.0001322,53.2151,229.6649,96.1687,263.9456,0.00022385,3.277e-05,0.0,0 STARLINK-4139,1 52879U 22062BB  24029.93927366  .00003277  00000-0  22385-3 0  9997,2 52879  53.2151 229.6649 0001322  96.1687 263.9456 15.08844858 90356,6917.866,95.437,540.645,538.816,0.0
52879.0,STARLINK-4139,PAYLOAD,2024-01-30 12:51:01,15.08840221,0.0001371,53.2155,226.9899,90.6596,269.4553,0.00010098,1.32e-05,0.0,0 STARLINK-4139,1 52879U 22062BB  24030.53543736  .00001320  00000-0  10098-3 0  9995,2 52879  53.2155 226.9899 0001371  90.6596 269.4553 15.08840221 89952,6917.88,95.438,540.693,538.796,0.0
52879.0,STARLINK-4139,PAYLOAD,2024-01-30 19:12:34,15.08839267,0.0001314,53.2152,225.7992,96.199,263.9152,7.6783e-05,9.34e-06,0.0,0 STARLINK-4139,1 52879U 22062BB  24030.80039785  .00000934  00000-0  76783-4 0  9993,2 52879  53.2152 225.7992 0001314  96.1990 263.9152 15.08839267 90488,6917.883,95.438,540.657,538.839,0.0
52879.0,STARLINK-4139,PAYLOAD,2024-01-31 12:41:48,15.08858619,0.0001181,53.2151,222.5272,101.7802,258.3323,-0.00028435,-4.813e-05,0.0,0 STARLINK-4139,1 52879U 22062BB  24031.52902815 -.00004813  00000-0 -28435-3 0  9998,2 52879  53.2151 222.5272 0001181 101.7802 258.3323 15.08858619 90592,6917.823,95.436,540.505,538.871,0.0
52879.0,STARLINK-4139,PAYLOAD,2024-01-31 22:14:07,15.08847186,0.0001501,53.2162,220.7438,93.9704,266.146,0.0002017,2.924e-05,0.0,0 STARLINK-4139,1 52879U 22062BB  24031.92647325  .00002924  00000-0  20170-3 0  9991,2 52879  53.2162 220.7438 0001501  93.9704 266.1460 15.08847186 90166,6917.858,95.437,540.762,538.685,0.0
52879.0,STARLINK-4139,PAYLOAD,2024-02-01 22:04:54,15.08839354,0.0001483,53.2159,216.2832,92.8582,267.258,5.3174e-05,5.58e-06,0.0,0 STARLINK-4139,1 52879U 22062BB  24032.92007693  .00000558  00000-0  53174-4 0  9992,2 52879  53.2159 216.2832 0001483  92.8582 267.2580 15.08839354 90311,6917.882,95.438,540.773,538.721,0.0
52879.0,STARLINK-4139,PAYLOAD,2024-02-02 12:23:23,15.08837809,0.0001326,53.216,213.6071,95.5417,264.5726,2.3728e-05,9e-07,0.0,0 STARLINK-4139,1 52879U 22062BB  24033.51623959  .00000090  00000-0  23728-4 0  9990,2 52879  53.2160 213.6071 0001326  95.5417 264.5726 15.08837809 90407,6917.887,95.438,540.669,538.835,0.0
52879.0,STARLINK-4139,PAYLOAD,2024-02-02 17:09:32,15.08839852,0.0001786,53.2155,212.7117,124.2209,235.8953,3.0376e-05,1.95e-06,0.0,0 STARLINK-4139,1 52879U 22062BB  24033.71495677  .00000195  00000-0  30376-4 0  9999,2 52879  53.2155 212.7117 0001786 124.2209 235.8953 15.08839852 90437,6917.881,95.438,540.981,538.51,0.0
52879.0,STARLINK-4139,PAYLOAD,2024-02-03 12:14:10,15.0883441,0.0001316,53.2156,209.1462,103.0674,257.0465,0.00010429,1.372e-05,0.0,0 STARLINK-4139,1 52879U 22062BB  24034.50984069  .00001372  00000-0  10429-3 0  9999,2 52879  53.2156 209.1462 0001316 103.0674 257.0465 15.08834410 90553,6917.897,95.438,540.673,538.852,0.0
52879.0,STARLINK-4139,PAYLOAD,2024-02-03 17:00:19,15.08835959,0.0001287,53.2159,208.2545,96.0489,264.0649,0.00011478,1.539e-05,0.0,0 STARLINK-4139,1 52879U 22062BB  24034.70856064  .00001539  00000-0  11478-3 0  9994,2 52879  53.2159 208.2545 0001287  96.0489 264.0649 15.08835959 91079,6917.893,95.438,540.648,538.867,0.0
52879.0,STARLINK-4139,PAYLOAD,2024-02-04 10:29:34,15.08839003,0.0001292,53.2161,204.9838,94.9486,265.1653,0.00012178,1.651e-05,0.0,0 STARLINK-4139,1 52879U 22062BB  24035.43720128  .00001651  00000-0  12178-3 0  9999,2 52879  53.2161 204.9838 0001292  94.9486 265.1653 15.08839003 90698,6917.883,95.438,540.642,538.855,0.0
52879.0,STARLINK-4139,PAYLOAD,2024-02-04 18:26:29,15.08840937,0.0001302,53.2165,203.4967,91.8294,268.2847,0.00011822,1.594e-05,0.0,0 STARLINK-4139,1 52879U 22062BB  24035.76840095  .00001594  00000-0  11822-3 0  9992,2 52879  53.2165 203.4967 0001302  91.8294 268.2847 15.08840937 91232,6917.878,95.437,540.643,538.842,0.0
52879.0,STARLINK-4139,PAYLOAD,2024-02-05 18:17:16,15.08844997,0.0001331,53.2167,199.0361,86.8848,273.2296,0.00012482,1.699e-05,0.0,0 STARLINK-4139,1 52879U 22062BB  24036.76199915  .00001699  00000-0  12482-3 0  9990,2 52879  53.2167 199.0361 0001331  86.8848 273.2296 15.08844997 90898,6917.865,95.437,540.651,538.809,0.0
52879.0,STARLINK-4139,PAYLOAD,2024-02-06 10:11:08,15.08841729,0.0001384,53.2167,196.0622,82.3027,277.8122,9.1516e-05,1.169e-05,0.0,0 STARLINK-4139,1 52879U 22062BB  24037.42440223  .00001169  00000-0  91516-4 0  9993,2 52879  53.2167 196.0622 0001384  82.3027 277.8122 15.08841729 91487,6917.875,95.437,540.698,538.783,0.0
52879.0,STARLINK-4139,PAYLOAD,2024-02-06 18:08:03,15.08845851,0.0001722,53.2176,194.5765,66.615,293.5023,0.00011478,1.539e-05,0.0,0 STARLINK-4139,1 52879U 22062BB  24037.75560013  .00001539  00000-0  11478-3 0  9998,2 52879  53.2176 194.5765 0001722  66.6150 293.5023 15.08845851 91043,6917.863,95.437,540.919,538.536,0.0
